{
  "norad_id": 39472,
  "name": "MCUBED-2",
  "history": [
    {
      "epoch": "2026-04-14T08:55:00.772608Z",
      "apogee_km": 400.4973555798215,
      "perigee_km": 326.98003272289225,
      "latitude_deg": 3.4241265707858822e-06,
      "longitude_deg": -81.13903760334381,
      "height_km": 328.9309064446948,
      "semi_major_axis_km": 6741.875694151357,
      "eccentricity": 0.00545229,
      "inclination_deg": 120.4787,
      "raan_deg": 255.1631,
      "arg_perigee_deg": 351.9178,
      "mean_anomaly_deg": 8.1037,
      "mean_motion_rev_day": 15.68309058
    },
    {
      "epoch": "2026-04-15T07:51:56.367072Z",
      "apogee_km": 400.1711230037836,
      "perigee_km": 326.3869983612194,
      "latitude_deg": 6.204871701997506e-05,
      "longitude_deg": -62.332886658083225,
      "height_km": 328.244965957182,
      "semi_major_axis_km": 6741.416060682501,
      "eccentricity": 0.00547245,
      "inclination_deg": 120.4784,
      "raan_deg": 259.1434,
      "arg_perigee_deg": 353.0329,
      "mean_anomaly_deg": 7.0004,
      "mean_motion_rev_day": 15.68469453
    },
    {
      "epoch": "2026-04-16T08:20:30.156000Z",
      "apogee_km": 399.7193548835521,
      "perigee_km": 325.812097394165,
      "latitude_deg": 2.095098295707441e-05,
      "longitude_deg": -66.23244356114925,
      "height_km": 327.59126697424836,
      "semi_major_axis_km": 6740.902726138858,
      "eccentricity": 0.005482,
      "inclination_deg": 120.4783,
      "raan_deg": 263.3898,
      "arg_perigee_deg": 354.127,
      "mean_anomaly_deg": 5.918,
      "mean_motion_rev_day": 15.6864862
    },
    {
      "epoch": "2026-04-17T08:48:54.048672Z",
      "apogee_km": 399.2592233468022,
      "perigee_km": 325.2510656784825,
      "latitude_deg": 3.431025480113662e-05,
      "longitude_deg": -70.09028538239423,
      "height_km": 326.96109524760567,
      "semi_major_axis_km": 6740.3921445126425,
      "eccentricity": 0.0054899,
      "inclination_deg": 120.4787,
      "raan_deg": 267.6366,
      "arg_perigee_deg": 355.2815,
      "mean_anomaly_deg": 4.776,
      "mean_motion_rev_day": 15.6882686
    },
    {
      "epoch": "2026-04-18T04:41:51.075456Z",
      "apogee_km": 398.9674448992546,
      "perigee_km": 324.66941143772965,
      "latitude_deg": 2.8900533055739122e-06,
      "longitude_deg": -5.6934234298768756,
      "height_km": 326.3363614207782,
      "semi_major_axis_km": 6739.955428168491,
      "eccentricity": 0.00551176,
      "inclination_deg": 120.4795,
      "raan_deg": 271.0876,
      "arg_perigee_deg": 356.1709,
      "mean_anomaly_deg": 3.8961,
      "mean_motion_rev_day": 15.68979341
    },
    {
      "epoch": "2026-04-19T03:38:08.752416Z",
      "apogee_km": 398.19821345857963,
      "perigee_km": 323.91813035431005,
      "latitude_deg": -5.573076870738947e-06,
      "longitude_deg": 13.272787135273434,
      "height_km": 325.5408069400886,
      "semi_major_axis_km": 6739.195171906445,
      "eccentricity": 0.00551105,
      "inclination_deg": 120.4801,
      "raan_deg": 275.0695,
      "arg_perigee_deg": 357.3565,
      "mean_anomaly_deg": 2.7235,
      "mean_motion_rev_day": 15.69244846
    },
    {
      "epoch": "2026-04-20T05:37:40.539072Z",
      "apogee_km": 397.4619047232136,
      "perigee_km": 323.162416587993,
      "latitude_deg": 4.611860562531474e-05,
      "longitude_deg": -13.162549306169147,
      "height_km": 324.7536106554604,
      "semi_major_axis_km": 6738.449160655603,
      "eccentricity": 0.0055131,
      "inclination_deg": 120.4809,
      "raan_deg": 279.5841,
      "arg_perigee_deg": 358.718,
      "mean_anomaly_deg": 1.377,
      "mean_motion_rev_day": 15.69505449
    },
    {
      "epoch": "2026-04-21T07:36:56.372832Z",
      "apogee_km": 396.56992063493817,
      "perigee_km": 322.3359631658732,
      "latitude_deg": -4.041778055880538e-06,
      "longitude_deg": -39.52947468504129,
      "height_km": 323.9166929040725,
      "semi_major_axis_km": 6737.589941900405,
      "eccentricity": 0.00550894,
      "inclination_deg": 120.4815,
      "raan_deg": 284.1004,
      "arg_perigee_deg": 359.9059,
      "mean_anomaly_deg": 0.2021,
      "mean_motion_rev_day": 15.69805688
    },
    {
      "epoch": "2026-04-22T06:32:31.080480Z",
      "apogee_km": 395.87888355869563,
      "perigee_km": 321.6425821571502,
      "latitude_deg": -1.870783368808867e-05,
      "longitude_deg": -20.379733751315786,
      "height_km": 323.22931758830657,
      "semi_major_axis_km": 6736.897732857922,
      "eccentricity": 0.00550968,
      "inclination_deg": 120.4807,
      "raan_deg": 288.0863,
      "arg_perigee_deg": 1.1457,
      "mean_anomaly_deg": 358.9759,
      "mean_motion_rev_day": 15.70047638
    },
    {
      "epoch": "2026-04-23T08:31:15.342816Z",
      "apogee_km": 395.11547312736,
      "perigee_km": 320.912593084061,
      "latitude_deg": 1.4914317458222151e-05,
      "longitude_deg": -46.61300027583827,
      "height_km": 322.5185080788499,
      "semi_major_axis_km": 6736.151033105711,
      "eccentricity": 0.00550781,
      "inclination_deg": 120.481,
      "raan_deg": 292.6044,
      "arg_perigee_deg": 2.2267,
      "mean_anomaly_deg": 357.9068,
      "mean_motion_rev_day": 15.70308704
    },
    {
      "epoch": "2026-04-24T10:29:43.617696Z",
      "apogee_km": 394.4534784458783,
      "perigee_km": 319.9578941980835,
      "latitude_deg": 6.888913116093891e-06,
      "longitude_deg": -72.7796447834226,
      "height_km": 321.5989682957477,
      "semi_major_axis_km": 6735.342686321981,
      "eccentricity": 0.0055302,
      "inclination_deg": 120.481,
      "raan_deg": 297.1223,
      "arg_perigee_deg": 3.381,
      "mean_anomaly_deg": 356.7653,
      "mean_motion_rev_day": 15.70591405
    },
    {
      "epoch": "2026-04-25T07:52:57.101088Z",
      "apogee_km": 393.64239937270213,
      "perigee_km": 319.2160143939527,
      "latitude_deg": 3.422950391922507e-08,
      "longitude_deg": -30.742158210761318,
      "height_km": 320.90096755460377,
      "semi_major_axis_km": 6734.566206883327,
      "eccentricity": 0.0055257,
      "inclination_deg": 120.481,
      "raan_deg": 300.8443,
      "arg_perigee_deg": 4.4123,
      "mean_anomaly_deg": 355.7453,
      "mean_motion_rev_day": 15.70863041
    },
    {
      "epoch": "2026-04-26T14:25:43.216032Z",
      "apogee_km": 392.335684351523,
      "perigee_km": 318.065623361952,
      "latitude_deg": -2.4786830999302773e-05,
      "longitude_deg": -124.87007450696846,
      "height_km": 319.8376433765081,
      "semi_major_axis_km": 6733.337653856737,
      "eccentricity": 0.0055151,
      "inclination_deg": 120.481,
      "raan_deg": 306.163,
      "arg_perigee_deg": 5.9478,
      "mean_anomaly_deg": 354.2265,
      "mean_motion_rev_day": 15.71292986
    },
    {
      "epoch": "2026-04-27T08:45:07.939008Z",
      "apogee_km": 391.58418053462447,
      "perigee_km": 317.2527287819239,
      "latitude_deg": 1.846889994344711e-05,
      "longitude_deg": -37.28243251026585,
      "height_km": 319.0948971181735,
      "semi_major_axis_km": 6732.555454658274,
      "eccentricity": 0.0055203,
      "inclination_deg": 120.4805,
      "raan_deg": 309.3562,
      "arg_perigee_deg": 6.934,
      "mean_anomaly_deg": 353.2512,
      "mean_motion_rev_day": 15.71566827
    },
    {
      "epoch": "2026-04-28T13:45:29.853216Z",
      "apogee_km": 390.3064988261722,
      "perigee_km": 316.31710616864075,
      "latitude_deg": -5.117986780182486e-05,
      "longitude_deg": -108.50913769547158,
      "height_km": 318.26963223059045,
      "semi_major_axis_km": 6731.448802497406,
      "eccentricity": 0.0054958,
      "inclination_deg": 120.4801,
      "raan_deg": 314.412,
      "arg_perigee_deg": 8.2696,
      "mean_anomaly_deg": 351.9297,
      "mean_motion_rev_day": 15.71954392
    },
    {
      "epoch": "2026-04-29T09:36:02.027808Z",
      "apogee_km": 389.5722064682486,
      "perigee_km": 315.6300672884181,
      "latitude_deg": -3.225928766002569e-05,
      "longitude_deg": -43.49710226751659,
      "height_km": 317.6637585252027,
      "semi_major_axis_km": 6730.738136878333,
      "eccentricity": 0.00549287,
      "inclination_deg": 120.4793,
      "raan_deg": 317.873,
      "arg_perigee_deg": 9.1213,
      "mean_anomaly_deg": 351.0872,
      "mean_motion_rev_day": 15.72203361
    },
    {
      "epoch": "2026-04-30T11:32:35.684448Z",
      "apogee_km": 388.4665943598766,
      "perigee_km": 314.7266151431877,
      "latitude_deg": -1.627266653737569e-05,
      "longitude_deg": -69.17687580364216,
      "height_km": 316.87756605653584,
      "semi_major_axis_km": 6729.733604751532,
      "eccentricity": 0.00547867,
      "inclination_deg": 120.479,
      "raan_deg": 322.3989,
      "arg_perigee_deg": 10.2383,
      "mean_anomaly_deg": 349.982,
      "mean_motion_rev_day": 15.72555393
    },
    {
      "epoch": "2026-05-02T09:18:29.500416Z",
      "apogee_km": 385.9899543332958,
      "perigee_km": 312.9336136183447,
      "latitude_deg": -2.5452083399350657e-05,
      "longitude_deg": -29.540505749528275,
      "height_km": 315.34156710635705,
      "semi_major_axis_km": 6727.59878397582,
      "eccentricity": 0.0054296,
      "inclination_deg": 120.4781,
      "raan_deg": 330.389,
      "arg_perigee_deg": 12.3743,
      "mean_anomaly_deg": 347.8677,
      "mean_motion_rev_day": 15.73303964
    }
  ]
}